{
  "type": "FeatureCollection",
  "features": [
    {
      "type": "Feature",
      "properties": {
        "norad_id": 41384,
        "name": "IRNSS-1F",
        "group": "gnss",
        "lat": 2.416773834628032,
        "lon": -108.65948491730482,
        "alt_km": 35704.12284211244,
        "timestamp": "2025-12-06T09:34:17.156886+00:00",
        "meta_object_name": "IRNSS-1F",
        "meta_object_id": "2016-015A",
        "meta_epoch": "2025-12-05T19:57:21.784032",
        "meta_mean_motion": 1.00268888,
        "meta_eccentricity": 0.00224318,
        "meta_inclination": 4.8631,
        "meta_ra_of_asc_node": 101.471,
        "meta_arg_of_pericenter": 179.8046,
        "meta_mean_anomaly": 125.322,
        "meta_ephemeris_type": 0,
        "meta_classification_type": "U",
        "meta_norad_cat_id": 41384,
        "meta_element_set_no": 999,
        "meta_rev_at_epoch": 3572,
        "meta_bstar": 0,
        "meta_mean_motion_dot": 1.66e-06,
        "meta_mean_motion_ddot": 0,
        "tle_line1": "1 41384U 16015A   25339.83150213  .00000166  00000+0  00000+0 0  9999",
        "tle_line2": "2 41384   4.8631 101.4710 0022431 179.8046 125.3220  1.00268888 35728"
      },
      "geometry": {
        "type": "Point",
        "coordinates": [
          -108.65948491730482,
          2.416773834628032
        ]
      }
    },
    {
      "type": "Feature",
      "properties": {
        "norad_id": 41434,
        "name": "BEIDOU-2 IGSO-6 (C13)",
        "group": "gnss",
        "lat": -59.96014667931857,
        "lon": -47.84299715809207,
        "alt_km": 35604.340272892616,
        "timestamp": "2025-12-06T09:34:17.156897+00:00",
        "meta_object_name": "BEIDOU-2 IGSO-6 (C13)",
        "meta_object_id": "2016-021A",
        "meta_epoch": "2025-12-01T15:57:35.287200",
        "meta_mean_motion": 1.00256562,
        "meta_eccentricity": 0.00591323,
        "meta_inclination": 59.9483,
        "meta_ra_of_asc_node": 40.0119,
        "meta_arg_of_pericenter": 231.2834,
        "meta_mean_anomaly": 130.8807,
        "meta_ephemeris_type": 0,
        "meta_classification_type": "U",
        "meta_norad_cat_id": 41434,
        "meta_element_set_no": 999,
        "meta_rev_at_epoch": 3550,
        "meta_bstar": 0,
        "meta_mean_motion_dot": -1.55e-06,
        "meta_mean_motion_ddot": 0,
        "tle_line1": "1 41434U 16021A   25335.66499175 -.00000155  00000+0  00000+0 0  9991",
        "tle_line2": "2 41434  59.9483  40.0119 0059132 231.2834 130.8807  1.00256562 35501"
      },
      "geometry": {
        "type": "Point",
        "coordinates": [
          -47.84299715809207,
          -59.96014667931857
        ]
      }
    },
    {
      "type": "Feature",
      "properties": {
        "norad_id": 41469,
        "name": "IRNSS-1G",
        "group": "gnss",
        "lat": -4.310794354738663,
        "lon": -11.668887356416494,
        "alt_km": 35792.38985625213,
        "timestamp": "2025-12-06T09:34:17.156910+00:00",
        "meta_object_name": "IRNSS-1G",
        "meta_object_id": "2016-027A",
        "meta_epoch": "2025-12-05T20:25:51.729024",
        "meta_mean_motion": 1.00252662,
        "meta_eccentricity": 0.00046491,
        "meta_inclination": 4.7158,
        "meta_ra_of_asc_node": 102.2769,
        "meta_arg_of_pericenter": 337.0468,
        "meta_mean_anomaly": 71.5274,
        "meta_ephemeris_type": 0,
        "meta_classification_type": "U",
        "meta_norad_cat_id": 41469,
        "meta_element_set_no": 999,
        "meta_rev_at_epoch": 3524,
        "meta_bstar": 0,
        "meta_mean_motion_dot": -3.28e-06,
        "meta_mean_motion_ddot": 0,
        "tle_line1": "1 41469U 16027A   25339.85129316 -.00000328  00000+0  00000+0 0  9999",
        "tle_line2": "2 41469   4.7158 102.2769 0004649 337.0468  71.5274  1.00252662 35246"
      },
      "geometry": {
        "type": "Point",
        "coordinates": [
          -11.668887356416494,
          -4.310794354738663
        ]
      }
    },
    {
      "type": "Feature",
      "properties": {
        "norad_id": 41549,
        "name": "GSAT0211 (GALILEO 14)",
        "group": "gnss",
        "lat": 0.9380191533389477,
        "lon": -132.34093154252886,
        "alt_km": 23210.976393234967,
        "timestamp": "2025-12-06T09:34:17.156929+00:00",
        "meta_object_name": "GSAT0211 (GALILEO 14)",
        "meta_object_id": "2016-030A",
        "meta_epoch": "2025-12-04T15:17:32.790048",
        "meta_mean_motion": 1.70472925,
        "meta_eccentricity": 0.00039451,
        "meta_inclination": 55.1551,
        "meta_ra_of_asc_node": 227.0467,
        "meta_arg_of_pericenter": 12.3132,
        "meta_mean_anomaly": 347.7919,
        "meta_ephemeris_type": 0,
        "meta_classification_type": "U",
        "meta_norad_cat_id": 41549,
        "meta_element_set_no": 999,
        "meta_rev_at_epoch": 5935,
        "meta_bstar": 0,
        "meta_mean_motion_dot": 4e-07,
        "meta_mean_motion_ddot": 0,
        "tle_line1": "1 41549U 16030A   25338.63718507  .00000040  00000+0  00000+0 0  9993",
        "tle_line2": "2 41549  55.1551 227.0467 0003945  12.3132 347.7919  1.70472925 59357"
      },
      "geometry": {
        "type": "Point",
        "coordinates": [
          -132.34093154252886,
          0.9380191533389477
        ]
      }
    },
    {
      "type": "Feature",
      "properties": {
        "norad_id": 41550,
        "name": "GSAT0210 (GALILEO 13)",
        "group": "gnss",
        "lat": -18.853148021348183,
        "lon": 60.750257775884634,
        "alt_km": 23221.675264039182,
        "timestamp": "2025-12-06T09:34:17.156951+00:00",
        "meta_object_name": "GSAT0210 (GALILEO 13)",
        "meta_object_id": "2016-030B",
        "meta_epoch": "2025-12-04T07:23:32.472672",
        "meta_mean_motion": 1.70473512,
        "meta_eccentricity": 0.0001419,
        "meta_inclination": 55.1546,
        "meta_ra_of_asc_node": 227.0538,
        "meta_arg_of_pericenter": 244.2228,
        "meta_mean_anomaly": 115.8568,
        "meta_ephemeris_type": 0,
        "meta_classification_type": "U",
        "meta_norad_cat_id": 41550,
        "meta_element_set_no": 999,
        "meta_rev_at_epoch": 5934,
        "meta_bstar": 0,
        "meta_mean_motion_dot": 4e-07,
        "meta_mean_motion_ddot": 0,
        "tle_line1": "1 41550U 16030B   25338.30801473  .00000040  00000+0  00000+0 0  9994",
        "tle_line2": "2 41550  55.1546 227.0538 0001419 244.2228 115.8568  1.70473512 59344"
      },
      "geometry": {
        "type": "Point",
        "coordinates": [
          60.750257775884634,
          -18.853148021348183
        ]
      }
    },
    {
      "type": "Feature",
      "properties": {
        "norad_id": 41586,
        "name": "BEIDOU-2 G7 (C03)",
        "group": "gnss",
        "lat": -1.7257791904146216,
        "lon": -30.56732719988052,
        "alt_km": 35790.150227495076,
        "timestamp": "2025-12-06T09:34:17.156964+00:00",
        "meta_object_name": "BEIDOU-2 G7 (C03)",
        "meta_object_id": "2016-037A",
        "meta_epoch": "2025-12-05T20:41:51.660672",
        "meta_mean_motion": 1.00270381,
        "meta_eccentricity": 0.00043597,
        "meta_inclination": 1.7393,
        "meta_ra_of_asc_node": 67.7286,
        "meta_arg_of_pericenter": 2.1594,
        "meta_mean_anomaly": 65.975,
        "meta_ephemeris_type": 0,
        "meta_classification_type": "U",
        "meta_norad_cat_id": 41586,
        "meta_element_set_no": 999,
        "meta_rev_at_epoch": 495,
        "meta_bstar": 0,
        "meta_mean_motion_dot": -3.45e-06,
        "meta_mean_motion_ddot": 0,
        "tle_line1": "1 41586U 16037A   25339.86240348 -.00000345  00000+0  00000+0 0  9999",
        "tle_line2": "2 41586   1.7393  67.7286 0004359   2.1594  65.9750  1.00270381  4959"
      },
      "geometry": {
        "type": "Point",
        "coordinates": [
          -30.56732719988052,
          -1.7257791904146216
        ]
      }
    },
    {
      "type": "Feature",
      "properties": {
        "norad_id": 41589,
        "name": "EUTELSAT 117 WEST B (WAAS/PRN 131)",
        "group": "gnss",
        "lat": -0.014320167635476349,
        "lon": 101.98185630510892,
        "alt_km": 35786.15687449485,
        "timestamp": "2025-12-06T09:34:17.156977+00:00",
        "meta_object_name": "EUTELSAT 117 WEST B (WAAS/PRN 131)",
        "meta_object_id": "2016-038B",
        "meta_epoch": "2025-12-05T16:33:57.002976",
        "meta_mean_motion": 1.00266571,
        "meta_eccentricity": 3.902e-05,
        "meta_inclination": 0.0079,
        "meta_ra_of_asc_node": 160.8925,
        "meta_arg_of_pericenter": 335.2257,
        "meta_mean_anomaly": 70.1092,
        "meta_ephemeris_type": 0,
        "meta_classification_type": "U",
        "meta_norad_cat_id": 41589,
        "meta_element_set_no": 999,
        "meta_rev_at_epoch": 3472,
        "meta_bstar": 0,
        "meta_mean_motion_dot": -1e-08,
        "meta_mean_motion_ddot": 0,
        "tle_line1": "1 41589U 16038B   25339.69024309 -.00000001  00000+0  00000+0 0  9990",
        "tle_line2": "2 41589   0.0079 160.8925 0000390 335.2257  70.1092  1.00266571 34728"
      },
      "geometry": {
        "type": "Point",
        "coordinates": [
          101.98185630510892,
          -0.014320167635476349
        ]
      }
    }
  ]
}